STARLINK-32750          
1 62572U 25006U   26068.01279713  .00027621  00000+0  10087-2 0  9992
2 62572  43.0026 296.0022 0001204 282.8978  77.1739 15.27606075 64767
FLOCK 4G-30             
1 62679U 25009BY  26068.70871344  .00013147  00000+0  49475-3 0  9999
2 62679  97.3969 150.6012 0003795 342.4152  17.6955 15.27244548121341
